OBJECT_NAME,OBJECT_ID,EPOCH,MEAN_MOTION,ECCENTRICITY,INCLINATION,RA_OF_ASC_NODE,ARG_OF_PERICENTER,MEAN_ANOMALY,EPHEMERIS_TYPE,CLASSIFICATION_TYPE,NORAD_CAT_ID,ELEMENT_SET_NO,REV_AT_EPOCH,BSTAR,MEAN_MOTION_DOT,MEAN_MOTION_DDOT
SKYSAT-C1,2016-040C,2026-06-19T15:01:50.673216,15.36335182,.00032661,96.9557,202.2141,53.5654,306.5892,0,U,41601,999,55824,.21073112E-3,.7393E-4,0
LAPAN-A3,2016-040E,2026-06-20T06:12:40.848768,15.33120972,.00105102,97.1492,167.3035,15.4475,344.7087,0,U,41603,999,55528,.85738295E-4,.2672E-4,0
GAOFEN-3,2016-049A,2026-06-20T06:36:31.543776,14.42216213,.00014633,98.4010,179.0153,98.6292,261.5064,0,U,41727,999,51909,.60709663E-4,.157E-5,0
SKYSAT-C4,2016-058B,2026-06-20T07:18:26.766144,15.48669604,.00015843,96.9172,192.9462,137.0730,223.0646,0,U,41771,999,54595,.27481625E-3,.14622E-3,0
SKYSAT-C5,2016-058C,2026-06-19T15:31:54.582528,15.34498754,.00009034,97.0465,211.1780,290.3567,69.7580,0,U,41772,999,54412,.18597341E-3,.614E-4,0
SKYSAT-C2,2016-058D,2026-06-19T23:38:00.223584,15.42124031,.00044633,97.0167,192.9745,64.8229,295.3482,0,U,41773,999,54548,.23850408E-3,.10132E-3,0
SKYSAT-C3,2016-058E,2026-06-19T23:30:05.600736,15.52642064,.00014051,96.9003,201.7180,101.0726,259.0686,0,U,41774,999,54654,.31647025E-3,.1941E-3,0
ALSAT-1B,2016-059C,2026-06-20T07:09:53.085312,14.72276012,.00083219,97.7747,179.9282,208.7916,151.2834,0,U,41785,999,52103,.14127724E-4,.42E-6,0
PATHFINDER 1,2016-059E,2026-06-19T22:21:45.809280,14.67665593,.00280076,97.8166,170.0842,194.6747,165.3648,0,U,41787,999,52011,.78647849E-4,.403E-5,0
SCATSAT 1,2016-059H,2026-06-20T04:32:09.278592,14.79530771,.00534913,98.1189,234.9861,237.5908,122.0122,0,U,41790,999,10203,.11402548E-3,.816E-5,0
GOKTURK 1A,2016-073A,2026-06-20T06:07:56.216928,14.62776420,.00014208,98.1243,65.8818,76.7534,283.3826,0,U,41875,999,50927,.5599807E-4,.239E-5,0
RESOURCESAT-2A,2016-074A,2026-06-20T07:24:03.477312,14.21617750,.00032945,98.7523,244.7876,79.0070,281.1477,0,U,41877,999,49474,.73540207E-4,.117E-5,0
CARTOSAT-2D,2017-008A,2026-06-20T07:40:45.272352,15.19223607,.00041092,97.4097,230.5684,220.8827,139.2100,0,U,41948,999,51805,.12265535E-3,.2516E-4,0
SENTINEL-2B,2017-013A,2026-06-20T06:49:33.472416,14.30817232,.000117,98.5687,246.0156,88.5545,271.5772,0,U,42063,999,48508,-.2915589E-4,-.12E-5,0
CARTOSAT-2E,2017-036C,2026-06-20T06:31:28.477632,15.19271705,.00021601,97.4266,231.0240,303.8120,56.2909,0,U,42767,999,49861,.72139876E-4,.1454E-4,0
FORMOSAT-5,2017-049A,2026-06-20T05:24:18.535392,14.50899766,.00126394,98.2254,246.4675,75.9629,284.2970,0,U,42920,999,46711,.36075231E-4,.99E-6,0
SENTINEL-5P,2017-064A,2026-06-20T05:35:12.073632,14.19519421,.00009906,98.7925,113.3425,87.2655,272.8635,0,U,42969,999,44999,.41136645E-4,.42E-6,0
SKYSAT-C11,2017-068A,2026-06-19T22:44:33.190368,15.58017640,.00005136,97.4361,319.8985,99.9461,260.1853,0,U,42987,999,48367,.33176526E-3,.24797E-3,0
SKYSAT-C10,2017-068B,2026-06-20T07:00:02.800512,15.34681944,.00011082,97.4513,308.1690,100.0375,260.0993,0,U,42988,999,48283,.22182815E-3,.7375E-4,0
SKYSAT-C9,2017-068C,2026-06-20T06:57:13.436640,15.41628025,.00095001,97.4435,309.1314,123.3080,236.9078,0,U,42989,999,48323,.2675445E-3,.11196E-3,0
SKYSAT-C8,2017-068D,2026-06-19T22:23:15.248832,15.37021157,.00014456,97.4531,307.6168,95.1004,265.0405,0,U,42990,999,48273,.24920712E-3,.8944E-4,0
SKYSAT-C7,2017-068E,2026-06-20T04:29:11.809536,15.36976631,.00071777,97.4541,308.8641,98.2731,261.9328,0,U,42991,999,48283,.25257769E-3,.906E-4,0
SKYSAT-C6,2017-068F,2026-06-19T22:49:51.208032,15.34251168,.00045515,97.4577,308.5847,130.5624,229.6015,0,U,42992,999,48274,.23936761E-3,.7858E-4,0
CARTOSAT-2F,2018-004A,2026-06-20T07:17:55.510080,15.19234018,.00010184,97.4781,230.9084,194.7826,165.3379,0,U,43111,999,46780,.14280978E-3,.294E-4,0
GAOFEN-1 02,2018-031A,2026-06-20T06:43:46.541856,14.76460649,.00035742,98.0520,233.7993,26.6896,333.4497,0,U,43259,999,44315,.10037089E-3,.647E-5,0
GAOFEN-1 03,2018-031B,2026-06-20T07:49:51.806784,14.76472744,.00036681,98.0516,233.7029,72.7403,287.4207,0,U,43260,999,44315,.81531574E-4,.516E-5,0
GAOFEN-1 04,2018-031D,2026-06-20T07:14:58.282944,14.76437374,.00021548,98.0522,233.8701,74.7730,285.3717,0,U,43262,999,44314,.48520504E-4,.286E-5,0
SENTINEL-3B,2018-039A,2026-06-19T18:49:42.233376,14.26735362,.00007281,98.6248,238.2796,93.3336,266.7928,0,U,43437,999,42449,.46883003E-4,.7E-6,0
GAOFEN-5 01,2018-043A,2026-06-19T22:32:04.592256,14.60607095,.00030367,98.4569,142.5828,79.2882,280.8659,0,U,43461,999,43209,.59928805E-4,.242E-5,0
GAOFEN-6,2018-048A,2026-06-20T07:46:19.095168,14.76599076,.00118762,97.9704,234.0313,155.8710,204.3058,0,U,43484,999,43385,-.19885718E-4,-.19E-5,0
