SKYSAT-C1               
1 41601U 16040C   26170.62628094  .00007393  00000+0  21073-3 0  9993
2 41601  96.9557 202.2141 0003266  53.5654 306.5892 15.36335182558246
LAPAN-A3                
1 41603U 16040E   26171.25880612  .00002672  00000+0  85738-4 0  9995
2 41603  97.1492 167.3035 0010510  15.4475 344.7087 15.33120972555287
GAOFEN-3                
1 41727U 16049A   26171.27536509  .00000157  00000+0  60710-4 0  9995
2 41727  98.4010 179.0153 0001463  98.6292 261.5064 14.42216213519095
SKYSAT-C4               
1 41771U 16058B   26171.30447646  .00014622  00000+0  27482-3 0  9991
2 41771  96.9172 192.9462 0001584 137.0730 223.0646 15.48669604545958
SKYSAT-C5               
1 41772U 16058C   26170.64715952  .00006140  00000+0  18597-3 0  9999
2 41772  97.0465 211.1780 0000903 290.3567  69.7580 15.34498754544129
SKYSAT-C2               
1 41773U 16058D   26170.98472481  .00010132  00000+0  23850-3 0  9998
2 41773  97.0167 192.9745 0004463  64.8229 295.3482 15.42124031545481
SKYSAT-C3               
1 41774U 16058E   26170.97923149  .00019410  00000+0  31647-3 0  9991
2 41774  96.9003 201.7180 0001405 101.0726 259.0686 15.52642064546543
ALSAT-1B                
1 41785U 16059C   26171.29853108  .00000042  00000+0  14128-4 0  9994
2 41785  97.7747 179.9282 0008321 208.7916 151.2834 14.72276012521030
PATHFINDER 1            
1 41787U 16059E   26170.93178020  .00000403  00000+0  78648-4 0  9997
2 41787  97.8166 170.0842 0028007 194.6747 165.3648 14.67665593520117
SCATSAT 1               
1 41790U 16059H   26171.18899628  .00000816  00000+0  11403-3 0  9996
2 41790  98.1189 234.9861 0053491 237.5908 122.0122 14.79530771102038
GOKTURK 1A              
1 41875U 16073A   26171.25551177  .00000239  00000+0  55998-4 0  9995
2 41875  98.1243  65.8818 0001420  76.7534 283.3826 14.62776420509273
RESOURCESAT-2A          
1 41877U 16074A   26171.30837358  .00000117  00000+0  73540-4 0  9990
2 41877  98.7523 244.7876 0003294  79.0070 281.1477 14.21617750494744
CARTOSAT-2D             
1 41948U 17008A   26171.31996843  .00002516  00000+0  12266-3 0  9995
2 41948  97.4097 230.5684 0004109 220.8827 139.2100 15.19223607518056
SENTINEL-2B             
1 42063U 17013A   26171.28441519 -.00000120  00000+0 -29156-4 0  9999
2 42063  98.5687 246.0156 0001170  88.5545 271.5772 14.30817232485085
CARTOSAT-2E             
1 42767U 17036C   26171.27185738  .00001454  00000+0  72140-4 0  9992
2 42767  97.4266 231.0240 0002160 303.8120  56.2909 15.19271705498617
FORMOSAT-5              
1 42920U 17049A   26171.22521453  .00000099  00000+0  36075-4 0  9991
2 42920  98.2254 246.4675 0012639  75.9629 284.2970 14.50899766467118
SENTINEL-5P             
1 42969U 17064A   26171.23277863  .00000042  00000+0  41137-4 0  9998
2 42969  98.7925 113.3425 0000990  87.2655 272.8635 14.19519421449997
SKYSAT-C11              
1 42987U 17068A   26170.94760637  .00024797  00000+0  33177-3 0  9992
2 42987  97.4361 319.8985 0000513  99.9461 260.1853 15.58017640483672
SKYSAT-C10              
1 42988U 17068B   26171.29169908  .00007375  00000+0  22183-3 0  9994
2 42988  97.4513 308.1690 0001108 100.0375 260.0993 15.34681944482834
SKYSAT-C9               
1 42989U 17068C   26171.28973885  .00011196  00000+0  26754-3 0  9995
2 42989  97.4435 309.1314 0009500 123.3080 236.9078 15.41628025483237
SKYSAT-C8               
1 42990U 17068D   26170.93281538  .00008944  00000+0  24921-3 0  9996
2 42990  97.4531 307.6168 0001445  95.1004 265.0405 15.37021157482737
SKYSAT-C7               
1 42991U 17068E   26171.18694224  .00009060  00000+0  25258-3 0  9999
2 42991  97.4541 308.8641 0007177  98.2731 261.9328 15.36976631482832
SKYSAT-C6               
1 42992U 17068F   26170.95128713  .00007858  00000+0  23937-3 0  9994
2 42992  97.4577 308.5847 0004551 130.5624 229.6015 15.34251168482744
CARTOSAT-2F             
1 43111U 18004A   26171.30411470  .00002940  00000+0  14281-3 0  9993
2 43111  97.4781 230.9084 0001018 194.7826 165.3379 15.19234018467804
GAOFEN-1 02             
1 43259U 18031A   26171.28039979  .00000647  00000+0  10037-3 0  9990
2 43259  98.0520 233.7993 0003574  26.6896 333.4497 14.76460649443158
GAOFEN-1 03             
1 43260U 18031B   26171.32629406  .00000516  00000+0  81532-4 0  9991
2 43260  98.0516 233.7029 0003668  72.7403 287.4207 14.76472744443151
GAOFEN-1 04             
1 43262U 18031D   26171.30206346  .00000286  00000+0  48521-4 0  9990
2 43262  98.0522 233.8701 0002154  74.7730 285.3717 14.76437374443144
SENTINEL-3B             
1 43437U 18039A   26170.78451659  .00000070  00000+0  46883-4 0  9992
2 43437  98.6248 238.2796 0000728  93.3336 266.7928 14.26735362424493
GAOFEN-5 01             
1 43461U 18043A   26170.93894204  .00000242  00000+0  59929-4 0  9994
2 43461  98.4569 142.5828 0003036  79.2882 280.8659 14.60607095432093
GAOFEN-6                
1 43484U 18048A   26171.32383212 -.00000190  00000+0 -19886-4 0  9992
2 43484  97.9704 234.0313 0011876 155.8710 204.3058 14.76599076433856
